#dP2019  9 29  0  0  0.00000000      96 __u+U ITR00 FIT  IAC
## 2073      0.00000000   900.00000000 58755 0.0000000000000
+  106   C06C07C08C09C10C11C12C13C16C19C20C21C22C23C24C25C26
+        C27C28C29C30C32C33C34C35C36C37E01E02E03E04E05E07E08
+        E09E11E12E13E14E15E18E19E21E24E25E26E27E30E31E33E36
+        G01G02G03G04G05G06G07G08G09G10G11G12G13G14G15G16G17
+        G18G19G20G21G22G23G24G25G26G27G28G29G30G31G32R01R02
+        R03R05R07R08R09R11R12R13R14R15R16R17R18R19R20R21R22
+        R23R24R26R27  0  0  0  0  0  0  0  0  0  0  0  0  0
++         9  9  8  9  8  8  8  8  9  8  8  8  8  9  8  9  8
++         8  8  8  8  8  9  9  8  9 10  5  5  5  5  5  5  5
++         5  5  5  5  5  5  5  5  5  5  5  5  5  5  5  5  5
++         3  3  3  4  4  4  4  4  4  4  3  4  4  3  4  4  4
++         3  4  4  4  3  4  4  3  4  3  4  3  4  3  3  6  5
++         5  5  5  6  6  6  6  6  5  5  6  5  5  6  6  6  5
++         5  6  8  8  0  0  0  0  0  0  0  0  0  0  0  0  0
%c M  cc GPS ccc cccc cccc cccc cccc ccccc ccccc ccccc ccccc
%c cc cc ccc ccc cccc cccc cccc cccc ccccc ccccc ccccc ccccc
%f  0.0000000  0.000000000  0.00000000000  0.000000000000000
%f  0.0000000  0.000000000  0.00000000000  0.000000000000000
%i    0    0    0    0      0      0      0      0         0
%i    0    0    0    0      0      0      0      0         0
/* INFORMATION & ANALYSIS CENTER (IAC)      ULTRA-RAPID DATA
/* S/V CLOCKS ARE ALIGNED TO GNSS TIME                      
/* G:C1WC2W R:C1PC2P E:C1XC5X C:C2IC6I J:C1CC2S             
/* PCV:IGS14_2070 OL/AL:FES2004  NONE     YN ORB:CoN CLK:CoN
*  2019 09 29 16 45  0.00000000
PC06 -15891.834142  38222.973661  -6461.350253    386.943377
PC07  -9109.184573  25906.003897  32263.805958   -162.176181
PC08 -25168.583772  22607.776396 -25299.061353     -9.601129
PC09  -7060.908393  40515.448652   8658.520067      3.401369
PC10   4776.261474  32445.351662  26897.106745   -222.298949
PC11  20162.935125 -17022.372988  -8917.568293     85.180771
PC12  12028.883669   9511.291776 -23251.825695   -251.627549
PC13  -9617.270428  25056.442446 -32539.867847   -869.690945
PC16 -13053.839095  39870.989733  -2948.055488   -883.612152
PC19  -7058.291746  18156.078556 -19969.371249    205.682391
PC20 -16996.690499   -212.383232 -22115.317485   -114.788325
PC21  17090.367612  19045.203782  11171.780818    284.523314
PC22   7091.113179  26294.942231  -6163.457717   -161.154567
PC23  -4933.205489 -16329.259915 -22069.792645   -928.019979
PC24  27373.478834   -553.698897  -5343.627223   -891.740792
PC25  15361.281819 -12515.825291 -19641.375276   -363.443811
PC26  23328.757086  10234.039186  11362.408406    404.892951
PC27 -12360.848085  -9972.688006  22931.624254    198.017892
PC28   3339.872833 -22655.153912  15939.584122    192.468563
PC29 -16198.389560  22724.858786    318.125922    125.215689
PC30 -20472.821943   9096.766014  16631.024079    200.471993
PC32 -17219.215720 -18904.144342 -11155.714012   -914.941063
PC33   7075.715754 -18117.660221  20003.791177   -426.440208
PC34  20578.520781  -9312.724060 -16401.490966   -114.980427
PC35  -2615.645541  22805.399070 -15849.983826   -391.289048
PC36 -15795.068883  12100.139498  19595.643789   -907.198659
PC37 -22778.036123 -10999.739636 -11765.498737 999999.999999
PE01    291.291104  18073.464085  23450.036000   -700.201768
PE02   -373.904054 -18093.751628 -23415.526200     82.154527
PE03   3299.860237 -29011.737907   4800.439989   -216.280316
PE04   9459.053187  24748.616205  13206.410844   -375.321769
PE05  14250.832889 -16315.099690  20169.313779   -444.376719
PE07 -16803.602567  -5833.262474 -23654.062243   -274.587722
PE08  -9651.230979 -24565.250776 -13384.522119   6284.901381
PE09  16713.621339   5682.183573  23765.895180   6300.923754
PE11  24465.879136  -1817.109332 -16574.029756   5572.996550
PE12   9184.966977  13558.502016 -24657.539172   6174.321085
PE13 -24365.768548   1862.133146  16710.315051    393.529298
PE14  -8004.602044  26640.053511  -2830.105358   -738.144916
PE15  -9543.492609 -13237.848037  24699.268313    893.523390
PE18  17686.628244 -21068.286502 -10085.813189   -832.520924
PE19  -4567.091383  28455.989250  -6751.875399     -3.697310
PE21 -18862.370578   6049.425596  21999.132804   -557.533556
PE24  26912.577150   9599.352563  -7707.376939   5845.791063
PE25  18937.878935  -5963.106354 -21942.508636   1663.168568
PE26 -25005.976060  15805.256062  -1238.709846   4051.178031
PE27 -26967.475057  -9558.673774   7593.978795    377.218660
PE30 -19137.298022 -19628.369906 -11169.508420   4507.357059
PE31  19208.146811  19523.961561  11253.732874   -469.021109
PE33 -10917.849397  20613.046756 -18222.151885   -470.599710
PE36  24934.365958 -15907.192660   1100.522878    655.952527
PG01   3984.821731  14440.469550 -22140.739442   -145.281755
PG02  17295.181623 -15085.253073  13870.400230   -315.463750
PG03  11821.180083  22194.236722  -8749.379204    -16.384406
PG04 -12934.495277  19031.667163  12463.404624      9.055977
PG05   6040.988165 -15168.207178  20776.632094     -1.857602
PG06  25871.143320  -6046.176621    637.802447    -73.645332
PG07  19776.277279   7914.921132  16439.610318   -116.628624
PG08  -4563.694165  25627.711858  -4635.719511     -8.191931
PG09  10498.284999  14017.122086  19919.034094    -43.705414
PG10 -20590.065640  -6714.066863 -15457.996798    -73.753386
PG11   1232.198188  18438.292443 -19688.703094   -492.883605
PG12  -7043.909789 -22542.833906 -12523.840395    199.094402
PG13  13007.909153 -22898.552321   3042.753519    -41.651542
PG14 -16854.581051  13772.850788 -14769.419228    -58.766995
PG15   1286.131351 -25764.053987  -5663.060735   -283.461726
PG16  -8500.593342  12623.072703  21521.146741    -78.633329
PG17  16106.493106  -4504.187103 -20195.608572    134.831920
PG18  -5403.309462  16511.421826 -20570.472236     89.383332
PG19  17335.250930 -10895.835058 -17231.710917   -260.575771
PG20 -22412.620013 -12929.941635  -6505.193546    527.039124
PG21 -22347.612228  -4370.967958  14300.482252   -110.622963
PG22   6341.005308  21131.736127 -14636.674188   -759.522299
PG23   3453.027995  22595.473142  13536.534637   -164.215652
PG24  -1845.940851 -15787.206455 -21420.916550     -2.778754
PG25 -17763.608275 -19933.819971   -139.098095    -13.931211
PG26 -15932.250652   4792.272717  20725.171606     50.206227
PG27 -12271.147271  22173.611698   7293.698108    -71.481652
PG28  19264.793984   8208.607647 -15668.191745    760.705873
PG29  -7378.241701 -16386.045571  19515.886781     84.644494
PG30  25737.660261    706.984454   6961.808876    -51.009561
PG31 -25821.454095   6689.034968   2673.727310      7.036191
PG32 -16435.897132   4826.413924 -20203.010736     74.215490
PR01   9823.428032  21961.170402   8498.193977     50.441314
PR02  11761.429945   4005.907584  22303.192950    390.447785
PR03   6384.509329 -14498.823987  20043.496847      2.306376
PR05 -10162.775913 -20701.885614 -10918.491754     36.607004
PR07  -6136.177614  14914.202621 -19718.680332    -27.325628
PR08   2673.425005  24540.792197  -6354.935727     15.395990
PR09 -23872.027037  -2856.083357   8437.083418     93.157491
PR11   3758.589341  12270.164995  22075.714629    -81.016651
PR12  19238.022912  11677.744815  12026.644131     65.878719
PR13  24468.841004   4124.865522  -5937.293451    -29.043496
PR14  15120.194400  -5345.825264 -19822.261372     43.480975
PR15  -2803.943702 -11916.482205 -22349.403451    104.179758
PR16 -19683.476662 -11373.311823 -11700.497915      3.456332
PR17  19003.237417 -16925.060218  -1340.164759    264.209068
PR18   9800.007948 -18299.039834  14868.206966      9.153830
PR19  -4320.721957  -9973.095992  23072.870756    -56.308488
PR20 -17784.965480   5350.966354  17471.634984   -391.888700
PR21 -18840.930124  17214.645625    579.150470    -75.532109
PR22  -7482.800837  17344.001442 -17079.739173   -177.713394
PR23   9317.304740   5531.564550 -23101.551993    257.041461
PR24  18494.742548  -7281.611978 -16017.258318   -185.226818
PR26 -16143.460035   2975.714496  19546.127097     -1.892096
PR27   2430.574790 -10506.575356 -23100.046576    125.164332
EOF
